start=new Date('2022-06-04T00:00:00.000Z').valueOf();
sats=[{"EPOCH":"2022-06-03T16:09:18.196992","ARG_OF_PERICENTER":"70.6935","TIME_SYSTEM":"UTC","ECCENTRICITY":"0.00014640","EPHEMERIS_TYPE":"0","OBJECT_NAME":"STARLINK-1927","SITE":"AFETR","DECAY_DATE":null,"APOAPSIS":"548.210","BSTAR":"0.00009643500000","CENTER_NAME":"EARTH","GP_ID":"205298046","OBJECT_TYPE":"PAYLOAD","CLASSIFICATION_TYPE":"U","MEAN_ELEMENT_THEORY":"SGP4","FILE":"3479630","TLE_LINE1":"1 47181U 20088BM  22154.67312728  .00001155  00000-0  96435-4 0  9992","REV_AT_EPOCH":"8486","PERIOD":"95.592","ELEMENT_SET_NO":"999","INCLINATION":"53.0571","MEAN_ANOMALY":"289.4212","COUNTRY_CODE":"US","PERIAPSIS":"546.182","OBJECT_ID":"2020-088BM","RA_OF_ASC_NODE":"334.3198","MEAN_MOTION_DDOT":"0.0000000000000","TLE_LINE2":"2 47181  53.0571 334.3198 0001464  70.6935 289.4212 15.06405636 84860","MEAN_MOTION_DOT":"0.00001155","SEMIMAJOR_AXIS":"6925.331","MEAN_MOTION":"15.06405636","NORAD_CAT_ID":"47181","REF_FRAME":"TEME","RCS_SIZE":"LARGE","LAUNCH_DATE":"2020-11-25"},{"MEAN_ELEMENT_THEORY":"SGP4","FILE":"3479336","TLE_LINE1":"1 47349U 21005A   22154.80435913  .00002890  00000-0  21612-4 0  9997","REV_AT_EPOCH":"7830","PERIOD":"91.326","ELEMENT_SET_NO":"999","INCLINATION":"53.0316","MEAN_ANOMALY":"249.2332","COUNTRY_CODE":"US","EPOCH":"2022-06-03T19:18:16.628832","ARG_OF_PERICENTER":"110.8745","TIME_SYSTEM":"UTC","EPHEMERIS_TYPE":"0","ECCENTRICITY":"0.00005350","OBJECT_NAME":"STARLINK-1952","BSTAR":"0.00002161200000","DECAY_DATE":null,"SITE":"AFETR","APOAPSIS":"339.986","CENTER_NAME":"EARTH","GP_ID":"205269426","OBJECT_TYPE":"PAYLOAD","CLASSIFICATION_TYPE":"U","NORAD_CAT_ID":"47349","REF_FRAME":"TEME","RCS_SIZE":"LARGE","LAUNCH_DATE":"2021-01-20","PERIAPSIS":"339.267","OBJECT_ID":"2021-005A","RA_OF_ASC_NODE":"342.8825","TLE_LINE2":"2 47349  53.0316 342.8825 0000535 110.8745 249.2332 15.76761006 78300","MEAN_MOTION_DDOT":"0.0000000000000","SEMIMAJOR_AXIS":"6717.762","MEAN_MOTION_DOT":"0.00002890","MEAN_MOTION":"15.76761006"},{"REV_AT_EPOCH":"7583","TLE_LINE1":"1 47350U 21005B   22154.91087356 -.00000051  00000-0  15515-4 0  9998","FILE":"3479630","MEAN_ELEMENT_THEORY":"SGP4","COUNTRY_CODE":"US","INCLINATION":"53.0564","MEAN_ANOMALY":"311.0819","PERIOD":"95.593","ELEMENT_SET_NO":"999","DECAY_DATE":null,"APOAPSIS":"548.748","SITE":"AFETR","BSTAR":"0.00001551500000","EPHEMERIS_TYPE":"0","ECCENTRICITY":"0.00021880","OBJECT_NAME":"STARLINK-2011","TIME_SYSTEM":"UTC","ARG_OF_PERICENTER":"49.0359","EPOCH":"2022-06-03T21:51:39.475584","GP_ID":"205297813","OBJECT_TYPE":"PAYLOAD","CLASSIFICATION_TYPE":"U","CENTER_NAME":"EARTH","NORAD_CAT_ID":"47350","LAUNCH_DATE":"2021-01-20","RCS_SIZE":"LARGE","REF_FRAME":"TEME","MEAN_MOTION_DDOT":"0.0000000000000","TLE_LINE2":"2 47350  53.0564 113.2459 0002188  49.0359 311.0819 15.06393890 75838","RA_OF_ASC_NODE":"113.2459","OBJECT_ID":"2021-005B","PERIAPSIS":"545.717","SEMIMAJOR_AXIS":"6925.367","MEAN_MOTION":"15.06393890","MEAN_MOTION_DOT":"-0.00000051"},{"SEMIMAJOR_AXIS":"6923.932","MEAN_MOTION_DOT":"0.00054398","MEAN_MOTION":"15.06862420","TLE_LINE2":"2 47351  53.0561  73.6902 0001425  36.0702 324.0383 15.06862420 76379","MEAN_MOTION_DDOT":"0.0000000000000","RA_OF_ASC_NODE":"73.6902","OBJECT_ID":"2021-005C","PERIAPSIS":"544.810","LAUNCH_DATE":"2021-01-20","RCS_SIZE":"LARGE","REF_FRAME":"TEME","NORAD_CAT_ID":"47351","GP_ID":"205297564","OBJECT_TYPE":"PAYLOAD","CLASSIFICATION_TYPE":"U","CENTER_NAME":"EARTH","APOAPSIS":"546.783","DECAY_DATE":null,"SITE":"AFETR","BSTAR":"0.00359760000000","EPHEMERIS_TYPE":"0","ECCENTRICITY":"0.00014250","OBJECT_NAME":"STARLINK-2017","TIME_SYSTEM":"UTC","ARG_OF_PERICENTER":"36.0702","EPOCH":"2022-06-03T19:22:12.562176","COUNTRY_CODE":"US","INCLINATION":"53.0561","MEAN_ANOMALY":"324.0383","PERIOD":"95.563","ELEMENT_SET_NO":"999","REV_AT_EPOCH":"7637","FILE":"3479630","TLE_LINE1":"1 47351U 21005C   22154.80708984  .00054398  00000-0  35976-2 0  9997","MEAN_ELEMENT_THEORY":"SGP4"},{"CENTER_NAME":"EARTH","CLASSIFICATION_TYPE":"U","GP_ID":"205263759","OBJECT_TYPE":"PAYLOAD","EPOCH":"2022-06-03T07:05:15.773280","ARG_OF_PERICENTER":"51.3367","TIME_SYSTEM":"UTC","OBJECT_NAME":"STARLINK-2034","EPHEMERIS_TYPE":"0","ECCENTRICITY":"0.00022380","DECAY_DATE":null,"APOAPSIS":"548.769","SITE":"AFETR","BSTAR":"-0.00002198100000","ELEMENT_SET_NO":"999","PERIOD":"95.592","MEAN_ANOMALY":"308.7822","INCLINATION":"53.0562","COUNTRY_CODE":"US","MEAN_ELEMENT_THEORY":"SGP4","TLE_LINE1":"1 47352U 21005D   22154.29532145 -.00000609  00000-0 -21981-4 0  9996","FILE":"3479192","REV_AT_EPOCH":"7573","MEAN_MOTION_DOT":"-0.00000609","SEMIMAJOR_AXIS":"6925.355","MEAN_MOTION":"15.06398051","PERIAPSIS":"545.670","OBJECT_ID":"2021-005D","RA_OF_ASC_NODE":"116.0145","MEAN_MOTION_DDOT":"0.0000000000000","TLE_LINE2":"2 47352  53.0562 116.0145 0002238  51.3367 308.7822 15.06398051 75732","REF_FRAME":"TEME","RCS_SIZE":"LARGE","LAUNCH_DATE":"2021-01-20","NORAD_CAT_ID":"47352"},{"LAUNCH_DATE":"2021-01-20","RCS_SIZE":"LARGE","REF_FRAME":"TEME","NORAD_CAT_ID":"47353","SEMIMAJOR_AXIS":"6925.358","MEAN_MOTION_DOT":"-0.00000131","MEAN_MOTION":"15.06396761","TLE_LINE2":"2 47353  53.0551  58.5323 0001661  49.8472 310.2663 15.06396761 76599","MEAN_MOTION_DDOT":"0.0000000000000","RA_OF_ASC_NODE":"58.5323","OBJECT_ID":"2021-005E","PERIAPSIS":"546.073","COUNTRY_CODE":"US","INCLINATION":"53.0551","MEAN_ANOMALY":"310.2663","PERIOD":"95.592","ELEMENT_SET_NO":"999","REV_AT_EPOCH":"7659","FILE":"3479630","TLE_LINE1":"1 47353U 21005E   22154.84774904 -.00000131  00000-0  10077-4 0  9992","MEAN_ELEMENT_THEORY":"SGP4","OBJECT_TYPE":"PAYLOAD","GP_ID":"205297062","CLASSIFICATION_TYPE":"U","CENTER_NAME":"EARTH","BSTAR":"0.00001007700000","DECAY_DATE":null,"SITE":"AFETR","APOAPSIS":"548.374","ECCENTRICITY":"0.00016610","EPHEMERIS_TYPE":"0","OBJECT_NAME":"STARLINK-2045","TIME_SYSTEM":"UTC","EPOCH":"2022-06-03T20:20:45.517056","ARG_OF_PERICENTER":"49.8472"},{"TIME_SYSTEM":"UTC","EPOCH":"2022-06-03T12:41:38.191200","ARG_OF_PERICENTER":"55.5313","DECAY_DATE":null,"SITE":"AFETR","APOAPSIS":"548.597","BSTAR":"0.00008395200000","OBJECT_NAME":"STARLINK-2046","ECCENTRICITY":"0.00020000","EPHEMERIS_TYPE":"0","CLASSIFICATION_TYPE":"U","OBJECT_TYPE":"PAYLOAD","GP_ID":"205262260","CENTER_NAME":"EARTH","TLE_LINE1":"1 47354U 21005F   22154.52891425  .00000969  00000-0  83952-4 0  9996","FILE":"3479192","MEAN_ELEMENT_THEORY":"SGP4","REV_AT_EPOCH":"7626","ELEMENT_SET_NO":"999","PERIOD":"95.592","COUNTRY_CODE":"US","MEAN_ANOMALY":"304.5865","INCLINATION":"53.0546","OBJECT_ID":"2021-005F","PERIAPSIS":"545.827","TLE_LINE2":"2 47354  53.0546  79.9521 0002000  55.5313 304.5865 15.06400541 76263","MEAN_MOTION_DDOT":"0.0000000000000","RA_OF_ASC_NODE":"79.9521","MEAN_MOTION":"15.06400541","SEMIMAJOR_AXIS":"6925.347","MEAN_MOTION_DOT":"0.00000969","NORAD_CAT_ID":"47354","REF_FRAME":"TEME","LAUNCH_DATE":"2021-01-20","RCS_SIZE":"LARGE"},{"CENTER_NAME":"EARTH","GP_ID":"205298064","OBJECT_TYPE":"PAYLOAD","CLASSIFICATION_TYPE":"U","EPOCH":"2022-06-03T17:59:26.151936","ARG_OF_PERICENTER":"60.9031","TIME_SYSTEM":"UTC","ECCENTRICITY":"0.00017480","EPHEMERIS_TYPE":"0","OBJECT_NAME":"STARLINK-2047","SITE":"AFETR","DECAY_DATE":null,"BSTAR":"0.00007830100000","APOAPSIS":"548.416","PERIOD":"95.592","ELEMENT_SET_NO":"999","INCLINATION":"53.0535","MEAN_ANOMALY":"299.2133","COUNTRY_CODE":"US","MEAN_ELEMENT_THEORY":"SGP4","TLE_LINE1":"1 47355U 21005G   22154.74960824  .00000885  00000-0  78301-4 0  9990","FILE":"3479630","REV_AT_EPOCH":"7650","SEMIMAJOR_AXIS":"6925.340","MEAN_MOTION":"15.06402803","MEAN_MOTION_DOT":"0.00000885","PERIAPSIS":"545.994","OBJECT_ID":"2021-005G","RA_OF_ASC_NODE":"63.9669","MEAN_MOTION_DDOT":"0.0000000000000","TLE_LINE2":"2 47355  53.0535  63.9669 0001748  60.9031 299.2133 15.06402803 76501","REF_FRAME":"TEME","RCS_SIZE":"LARGE","LAUNCH_DATE":"2021-01-20","NORAD_CAT_ID":"47355"},{"OBJECT_ID":"2021-005H","PERIAPSIS":"546.049","TLE_LINE2":"2 47356  53.0537  83.7643 0001676  62.7051 297.4108 15.06401261 76237","MEAN_MOTION_DDOT":"0.0000000000000","RA_OF_ASC_NODE":"83.7643","SEMIMAJOR_AXIS":"6925.345","MEAN_MOTION_DOT":"0.00002096","MEAN_MOTION":"15.06401261","NORAD_CAT_ID":"47356","REF_FRAME":"TEME","LAUNCH_DATE":"2021-01-20","RCS_SIZE":"LARGE","TIME_SYSTEM":"UTC","EPOCH":"2022-06-03T19:05:47.376672","ARG_OF_PERICENTER":"62.7051","DECAY_DATE":null,"SITE":"AFETR","BSTAR":"0.00015956000000","APOAPSIS":"548.370","EPHEMERIS_TYPE":"0","ECCENTRICITY":"0.00016760","OBJECT_NAME":"STARLINK-2049","GP_ID":"205296313","OBJECT_TYPE":"PAYLOAD","CLASSIFICATION_TYPE":"U","CENTER_NAME":"EARTH","TLE_LINE1":"1 47356U 21005H   22154.79568723  .00002096  00000-0  15956-3 0  9990","FILE":"3479630","MEAN_ELEMENT_THEORY":"SGP4","REV_AT_EPOCH":"7623","PERIOD":"95.592","ELEMENT_SET_NO":"999","COUNTRY_CODE":"US","INCLINATION":"53.0537","MEAN_ANOMALY":"297.4108"},{"RA_OF_ASC_NODE":"116.0967","TLE_LINE2":"2 47357  53.0551 116.0967 0001841  54.9985 305.1177 15.06394897 75739","MEAN_MOTION_DDOT":"0.0000000000000","PERIAPSIS":"545.954","OBJECT_ID":"2021-005J","MEAN_MOTION_DOT":"-0.00000361","SEMIMAJOR_AXIS":"6925.364","MEAN_MOTION":"15.06394897","NORAD_CAT_ID":"47357","RCS_SIZE":"LARGE","LAUNCH_DATE":"2021-01-20","REF_FRAME":"TEME","EPHEMERIS_TYPE":"0","ECCENTRICITY":"0.00018410","OBJECT_NAME":"STARLINK-2050","DECAY_DATE":null,"SITE":"AFETR","BSTAR":"-0.00000531040000","APOAPSIS":"548.504","ARG_OF_PERICENTER":"54.9985","EPOCH":"2022-06-03T06:33:24.567264","TIME_SYSTEM":"UTC","CENTER_NAME":"EARTH","OBJECT_TYPE":"PAYLOAD","GP_ID":"205264003","CLASSIFICATION_TYPE":"U","REV_AT_EPOCH":"7573","MEAN_ELEMENT_THEORY":"SGP4","FILE":"3479192","TLE_LINE1":"1 47357U 21005J   22154.27320101 -.00000361  00000-0 -53104-5 0  9994","INCLINATION":"53.0551","MEAN_ANOMALY":"305.1177","COUNTRY_CODE":"US","PERIOD":"95.592","ELEMENT_SET_NO":"999"}];
